{"type": "FeatureCollection", "features": [{"type": "Feature", "properties": {"norad_id": 24946, "name": "IRIDIUM 33", "group": "iridium-33-debris", "lat": 73.23319411359034, "lon": -124.90321229717543, "alt_km": 767.6088605004306, "timestamp": "2025-12-15T04:01:20.836733+00:00", "meta": {"OBJECT_NAME": "IRIDIUM 33", "OBJECT_ID": "1997-051C", "EPOCH": "2025-12-14T07:26:46.689504", "MEAN_MOTION": 14.35038871, "ECCENTRICITY": 0.00072163, "INCLINATION": 86.3869, "RA_OF_ASC_NODE": 67.5624, "ARG_OF_PERICENTER": 194.7886, "MEAN_ANOMALY": 165.31, "EPHEMERIS_TYPE": 0, "CLASSIFICATION_TYPE": "U", "NORAD_CAT_ID": 24946, "ELEMENT_SET_NO": 999, "REV_AT_EPOCH": 47857, "BSTAR": 0.00015403884, "MEAN_MOTION_DOT": 4.58e-06, "MEAN_MOTION_DDOT": 0}, "tle": {"line1": "1 24946U 97051C   25348.31026261  .00000458  00000+0  15404-3 0  9993", "line2": "2 24946  86.3869  67.5624 0007216 194.7886 165.3100 14.35038871478573"}}, "geometry": {"type": "Point", "coordinates": [-124.90321229717543, 73.23319411359034]}}, {"type": "Feature", "properties": {"norad_id": 33773, "name": "IRIDIUM 33 DEB", "group": "iridium-33-debris", "lat": 44.63000549037842, "lon": -124.00142470949717, "alt_km": 735.0630606852983, "timestamp": "2025-12-15T04:01:20.836759+00:00", "meta": {"OBJECT_NAME": "IRIDIUM 33 DEB", "OBJECT_ID": "1997-051L", "EPOCH": "2025-12-14T04:06:11.263680", "MEAN_MOTION": 14.43261073, "ECCENTRICITY": 0.00125943, "INCLINATION": 86.4009, "RA_OF_ASC_NODE": 59.983, "ARG_OF_PERICENTER": 142.1919, "MEAN_ANOMALY": 218.0169, "EPHEMERIS_TYPE": 0, "CLASSIFICATION_TYPE": "U", "NORAD_CAT_ID": 33773, "ELEMENT_SET_NO": 999, "REV_AT_EPOCH": 88368, "BSTAR": 0.00041825847, "MEAN_MOTION_DOT": 1.428e-05, "MEAN_MOTION_DDOT": 0}, "tle": {"line1": "1 33773U 97051L   25348.17096370  .00001428  00000+0  41826-3 0  9998", "line2": "2 33773  86.4009  59.9830 0012594 142.1919 218.0169 14.43261073883685"}}, "geometry": {"type": "Point", "coordinates": [-124.00142470949717, 44.63000549037842]}}, {"type": "Feature", "properties": {"norad_id": 33775, "name": "IRIDIUM 33 DEB", "group": "iridium-33-debris", "lat": -23.2879604871479, "lon": -129.914173778617, "alt_km": 753.4302063337564, "timestamp": "2025-12-15T04:01:20.836774+00:00", "meta": {"OBJECT_NAME": "IRIDIUM 33 DEB", "OBJECT_ID": "1997-051N", "EPOCH": "2025-12-14T05:43:05.871360", "MEAN_MOTION": 14.41472464, "ECCENTRICITY": 0.00144472, "INCLINATION": 86.3637, "RA_OF_ASC_NODE": 48.914, "ARG_OF_PERICENTER": 150.0431, "MEAN_ANOMALY": 273.4813, "EPHEMERIS_TYPE": 0, "CLASSIFICATION_TYPE": "U", "NORAD_CAT_ID": 33775, "ELEMENT_SET_NO": 999, "REV_AT_EPOCH": 88162, "BSTAR": 0.00042118619, "MEAN_MOTION_DOT": 1.387e-05, "MEAN_MOTION_DDOT": 0}, "tle": {"line1": "1 33775U 97051N   25348.23826240  .00001387  00000+0  42119-3 0  9994", "line2": "2 33775  86.3637  48.9140 0014447 150.0431 273.4813 14.41472464881620"}}, "geometry": {"type": "Point", "coordinates": [-129.914173778617, -23.2879604871479]}}, {"type": "Feature", "properties": {"norad_id": 33776, "name": "IRIDIUM 33 DEB", "group": "iridium-33-debris", "lat": 44.245662540037465, "lon": 83.26830128680162, "alt_km": 768.3549378542393, "timestamp": "2025-12-15T04:01:20.836788+00:00", "meta": {"OBJECT_NAME": "IRIDIUM 33 DEB", "OBJECT_ID": "1997-051P", "EPOCH": "2025-12-14T08:06:29.551392", "MEAN_MOTION": 14.38238638, "ECCENTRICITY": 0.00145328, "INCLINATION": 86.4037, "RA_OF_ASC_NODE": 80.1048, "ARG_OF_PERICENTER": 185.0818, "MEAN_ANOMALY": 245.9724, "EPHEMERIS_TYPE": 0, "CLASSIFICATION_TYPE": "U", "NORAD_CAT_ID": 33776, "ELEMENT_SET_NO": 999, "REV_AT_EPOCH": 88105, "BSTAR": 0.00037826952, "MEAN_MOTION_DOT": 1.17e-05, "MEAN_MOTION_DDOT": 0}, "tle": {"line1": "1 33776U 97051P   25348.33784203  .00001170  00000+0  37827-3 0  9998", "line2": "2 33776  86.4037  80.1048 0014532 185.0818 245.9724 14.38238638881054"}}, "geometry": {"type": "Point", "coordinates": [83.26830128680162, 44.245662540037465]}}, {"type": "Feature", "properties": {"norad_id": 33777, "name": "IRIDIUM 33 DEB", "group": "iridium-33-debris", "lat": -16.020288333797158, "lon": 33.105736092016855, "alt_km": 713.1710252218836, "timestamp": "2025-12-15T04:01:20.836801+00:00", "meta": {"OBJECT_NAME": "IRIDIUM 33 DEB", "OBJECT_ID": "1997-051Q", "EPOCH": "2025-12-14T04:59:54.392352", "MEAN_MOTION": 14.55629997, "ECCENTRICITY": 0.00052546, "INCLINATION": 86.3789, "RA_OF_ASC_NODE": 34.5647, "ARG_OF_PERICENTER": 242.2045, "MEAN_ANOMALY": 117.863, "EPHEMERIS_TYPE": 0, "CLASSIFICATION_TYPE": "U", "NORAD_CAT_ID": 33777, "ELEMENT_SET_NO": 999, "REV_AT_EPOCH": 88555, "BSTAR": 0.00096953555, "MEAN_MOTION_DOT": 4.251e-05, "MEAN_MOTION_DDOT": 0}, "tle": {"line1": "1 33777U 97051Q   25348.20826843  .00004251  00000+0  96954-3 0  9991", "line2": "2 33777  86.3789  34.5647 0005254 242.2045 117.8630 14.55629997885558"}}, "geometry": {"type": "Point", "coordinates": [33.105736092016855, -16.020288333797158]}}, {"type": "Feature", "properties": {"norad_id": 33850, "name": "IRIDIUM 33 DEB", "group": "iridium-33-debris", "lat": -10.084800022613452, "lon": -150.212075619132, "alt_km": 748.5853297094745, "timestamp": "2025-12-15T04:01:20.836813+00:00", "meta": {"OBJECT_NAME": "IRIDIUM 33 DEB", "OBJECT_ID": "1997-051T", "EPOCH": "2025-12-14T04:06:40.466880", "MEAN_MOTION": 14.4214965, "ECCENTRICITY": 0.00123805, "INCLINATION": 86.3417, "RA_OF_ASC_NODE": 29.5642, "ARG_OF_PERICENTER": 156.6398, "MEAN_ANOMALY": 264.0152, "EPHEMERIS_TYPE": 0, "CLASSIFICATION_TYPE": "U", "NORAD_CAT_ID": 33850, "ELEMENT_SET_NO": 999, "REV_AT_EPOCH": 88173, "BSTAR": 0.00038907266, "MEAN_MOTION_DOT": 1.3e-05, "MEAN_MOTION_DDOT": 0}, "tle": {"line1": "1 33850U 97051T   25348.17130170  .00001300  00000+0  38907-3 0  9996", "line2": "2 33850  86.3417  29.5642 0012380 156.6398 264.0152 14.42149650881733"}}, "geometry": {"type": "Point", "coordinates": [-150.212075619132, -10.084800022613452]}}, {"type": "Feature", "properties": {"norad_id": 33853, "name": "IRIDIUM 33 DEB", "group": "iridium-33-debris", "lat": -15.825443760973098, "lon": 169.8836711901771, "alt_km": 773.9914196687196, "timestamp": "2025-12-15T04:01:20.836825+00:00", "meta": {"OBJECT_NAME": "IRIDIUM 33 DEB", "OBJECT_ID": "1997-051W", "EPOCH": "2025-12-14T06:31:50.970144", "MEAN_MOTION": 13.99074098, "ECCENTRICITY": 0.02069852, "INCLINATION": 85.9997, "RA_OF_ASC_NODE": 349.1396, "ARG_OF_PERICENTER": 231.0684, "MEAN_ANOMALY": 138.4193, "EPHEMERIS_TYPE": 0, "CLASSIFICATION_TYPE": "U", "NORAD_CAT_ID": 33853, "ELEMENT_SET_NO": 999, "REV_AT_EPOCH": 85367, "BSTAR": 0.0021165037, "MEAN_MOTION_DOT": 3.695e-05, "MEAN_MOTION_DDOT": 0}, "tle": {"line1": "1 33853U 97051W   25348.27211771  .00003695  00000+0  21165-2 0  9993", "line2": "2 33853  85.9997 349.1396 0206985 231.0684 138.4193 13.99074098853678"}}, "geometry": {"type": "Point", "coordinates": [169.8836711901771, -15.825443760973098]}}, {"type": "Feature", "properties": {"norad_id": 33860, "name": "IRIDIUM 33 DEB", "group": "iridium-33-debris", "lat": -16.04780545917741, "lon": 25.120840504871786, "alt_km": 669.2091198645448, "timestamp": "2025-12-15T04:01:20.836837+00:00", "meta": {"OBJECT_NAME": "IRIDIUM 33 DEB", "OBJECT_ID": "1997-051AD", "EPOCH": "2025-12-14T03:48:37.595808", "MEAN_MOTION": 14.6739468, "ECCENTRICITY": 0.00072274, "INCLINATION": 86.3831, "RA_OF_ASC_NODE": 26.6098, "ARG_OF_PERICENTER": 352.9674, "MEAN_ANOMALY": 65.2403, "EPHEMERIS_TYPE": 0, "CLASSIFICATION_TYPE": "U", "NORAD_CAT_ID": 33860, "ELEMENT_SET_NO": 999, "REV_AT_EPOCH": 88743, "BSTAR": 0.0012019374, "MEAN_MOTION_DOT": 6.818e-05, "MEAN_MOTION_DDOT": 0}, "tle": {"line1": "1 33860U 97051AD  25348.15876847  .00006818  00000+0  12019-2 0  9997", "line2": "2 33860  86.3831  26.6098 0007227 352.9674  65.2403 14.67394680887434"}}, "geometry": {"type": "Point", "coordinates": [25.120840504871786, -16.04780545917741]}}, {"type": "Feature", "properties": {"norad_id": 33862, "name": "IRIDIUM 33 DEB", "group": "iridium-33-debris", "lat": 37.37297015172744, "lon": 39.20893330913748, "alt_km": 625.5032863980778, "timestamp": "2025-12-15T04:01:20.836847+00:00", "meta": {"OBJECT_NAME": "IRIDIUM 33 DEB", "OBJECT_ID": "1997-051AF", "EPOCH": "2025-12-14T05:17:19.740768", "MEAN_MOTION": 14.6951242, "ECCENTRICITY": 0.00532988, "INCLINATION": 86.4093, "RA_OF_ASC_NODE": 36.8774, "ARG_OF_PERICENTER": 64.2068, "MEAN_ANOMALY": 5.723, "EPHEMERIS_TYPE": 0, "CLASSIFICATION_TYPE": "U", "NORAD_CAT_ID": 33862, "ELEMENT_SET_NO": 999, "REV_AT_EPOCH": 88845, "BSTAR": 0.0014822233, "MEAN_MOTION_DOT": 9.009e-05, "MEAN_MOTION_DDOT": 0}, "tle": {"line1": "1 33862U 97051AF  25348.22036737  .00009009  00000+0  14822-2 0  9992", "line2": "2 33862  86.4093  36.8774 0053298  64.2068   5.7230 14.69512420888456"}}, "geometry": {"type": "Point", "coordinates": [39.20893330913748, 37.37297015172744]}}, {"type": "Feature", "properties": {"norad_id": 33866, "name": "IRIDIUM 33 DEB", "group": "iridium-33-debris", "lat": 75.32295228233882, "lon": 106.3129170589377, "alt_km": 782.2263489353863, "timestamp": "2025-12-15T04:01:20.836859+00:00", "meta": {"OBJECT_NAME": "IRIDIUM 33 DEB", "OBJECT_ID": "1997-051AK", "EPOCH": "2025-12-14T07:42:10.912896", "MEAN_MOTION": 14.25282579, "ECCENTRICITY": 0.01146017, "INCLINATION": 86.2997, "RA_OF_ASC_NODE": 92.3665, "ARG_OF_PERICENTER": 156.3785, "MEAN_ANOMALY": 259.2943, "EPHEMERIS_TYPE": 0, "CLASSIFICATION_TYPE": "U", "NORAD_CAT_ID": 33866, "ELEMENT_SET_NO": 999, "REV_AT_EPOCH": 86833, "BSTAR": 0.00080571503, "MEAN_MOTION_DOT": 2.049e-05, "MEAN_MOTION_DDOT": 0}, "tle": {"line1": "1 33866U 97051AK  25348.32095964  .00002049  00000+0  80572-3 0  9997", "line2": "2 33866  86.2997  92.3665 0114601 156.3785 259.2943 14.25282579868335"}}, "geometry": {"type": "Point", "coordinates": [106.3129170589377, 75.32295228233882]}}]}